{
  "type": "FeatureCollection",
  "features": [
    {
      "type": "Feature",
      "properties": {
        "norad_id": 35650,
        "name": "COSMOS 2251 DEB",
        "group": "cosmos-2251-debris",
        "lat": 14.501857022474013,
        "lon": -177.55844902753665,
        "alt_km": 622.1798083841832,
        "timestamp": "2025-12-18T21:31:51.401463+00:00",
        "meta_object_name": "COSMOS 2251 DEB",
        "meta_object_id": "1993-036ANR",
        "meta_epoch": "2025-12-18T07:55:26.580000",
        "meta_mean_motion": 14.83765086,
        "meta_eccentricity": 0.00148611,
        "meta_inclination": 74.0451,
        "meta_ra_of_asc_node": 7.8074,
        "meta_arg_of_pericenter": 52.4098,
        "meta_mean_anomaly": 325.0699,
        "meta_ephemeris_type": 0,
        "meta_classification_type": "U",
        "meta_norad_cat_id": 35650,
        "meta_element_set_no": 999,
        "meta_rev_at_epoch": 87717,
        "meta_bstar": 0.0014722854,
        "meta_mean_motion_dot": 0.000122,
        "meta_mean_motion_ddot": 0,
        "tle_line1": "1 35650U 93036ANR 25352.33016875  .00012200  00000+0  14723-2 0  9993",
        "tle_line2": "2 35650  74.0451   7.8074 0014861  52.4098 325.0699 14.83765086877178"
      },
      "geometry": {
        "type": "Point",
        "coordinates": [
          -177.55844902753665,
          14.501857022474013
        ]
      }
    },
    {
      "type": "Feature",
      "properties": {
        "norad_id": 35660,
        "name": "COSMOS 2251 DEB",
        "group": "cosmos-2251-debris",
        "lat": 67.42638714219935,
        "lon": 165.18184208045872,
        "alt_km": 731.4418128369907,
        "timestamp": "2025-12-18T21:31:51.401474+00:00",
        "meta_object_name": "COSMOS 2251 DEB",
        "meta_object_id": "1993-036APB",
        "meta_epoch": "2025-12-15T02:38:46.156416",
        "meta_mean_motion": 14.49937403,
        "meta_eccentricity": 0.00182984,
        "meta_inclination": 74.0379,
        "meta_ra_of_asc_node": 128.7781,
        "meta_arg_of_pericenter": 277.071,
        "meta_mean_anomaly": 198.1224,
        "meta_ephemeris_type": 0,
        "meta_classification_type": "U",
        "meta_norad_cat_id": 35660,
        "meta_element_set_no": 999,
        "meta_rev_at_epoch": 65905,
        "meta_bstar": 0.00040464315,
        "meta_mean_motion_dot": 1.541e-05,
        "meta_mean_motion_ddot": 0,
        "tle_line1": "1 35660U 93036APB 25349.11025644  .00001541  00000+0  40464-3 0  9998",
        "tle_line2": "2 35660  74.0379 128.7781 0018298 277.0710 198.1224 14.49937403659054"
      },
      "geometry": {
        "type": "Point",
        "coordinates": [
          165.18184208045872,
          67.42638714219935
        ]
      }
    },
    {
      "type": "Feature",
      "properties": {
        "norad_id": 35661,
        "name": "COSMOS 2251 DEB",
        "group": "cosmos-2251-debris",
        "lat": 16.203590599411616,
        "lon": -117.3217055992961,
        "alt_km": 548.1130539414053,
        "timestamp": "2025-12-18T21:31:51.401485+00:00",
        "meta_object_name": "COSMOS 2251 DEB",
        "meta_object_id": "1993-036APC",
        "meta_epoch": "2025-12-17T22:11:22.609536",
        "meta_mean_motion": 14.86648371,
        "meta_eccentricity": 0.00874008,
        "meta_inclination": 74.0141,
        "meta_ra_of_asc_node": 69.3947,
        "meta_arg_of_pericenter": 172.2755,
        "meta_mean_anomaly": 187.9796,
        "meta_ephemeris_type": 0,
        "meta_classification_type": "U",
        "meta_norad_cat_id": 35661,
        "meta_element_set_no": 999,
        "meta_rev_at_epoch": 87945,
        "meta_bstar": 0.00056862589,
        "meta_mean_motion_dot": 5.379e-05,
        "meta_mean_motion_ddot": 0,
        "tle_line1": "1 35661U 93036APC 25351.92456724  .00005379  00000+0  56863-3 0  9991",
        "tle_line2": "2 35661  74.0141  69.3947 0087400 172.2755 187.9796 14.86648371879454"
      },
      "geometry": {
        "type": "Point",
        "coordinates": [
          -117.3217055992961,
          16.203590599411616
        ]
      }
    },
    {
      "type": "Feature",
      "properties": {
        "norad_id": 35663,
        "name": "COSMOS 2251 DEB",
        "group": "cosmos-2251-debris",
        "lat": -50.33733048201749,
        "lon": 92.5751652489985,
        "alt_km": 683.2122818548578,
        "timestamp": "2025-12-18T21:31:51.401495+00:00",
        "meta_object_name": "COSMOS 2251 DEB",
        "meta_object_id": "1993-036APE",
        "meta_epoch": "2025-12-13T02:32:21.539904",
        "meta_mean_motion": 14.65684168,
        "meta_eccentricity": 0.00063461,
        "meta_inclination": 74.0174,
        "meta_ra_of_asc_node": 123.959,
        "meta_arg_of_pericenter": 198.7091,
        "meta_mean_anomaly": 161.3846,
        "meta_ephemeris_type": 0,
        "meta_classification_type": "U",
        "meta_norad_cat_id": 35663,
        "meta_element_set_no": 999,
        "meta_rev_at_epoch": 73387,
        "meta_bstar": 0.0025042609,
        "meta_mean_motion_dot": 0.00013628,
        "meta_mean_motion_ddot": 0,
        "tle_line1": "1 35663U 93036APE 25347.10580486  .00013628  00000+0  25043-2 0  9992",
        "tle_line2": "2 35663  74.0174 123.9590 0006346 198.7091 161.3846 14.65684168733877"
      },
      "geometry": {
        "type": "Point",
        "coordinates": [
          92.5751652489985,
          -50.33733048201749
        ]
      }
    },
    {
      "type": "Feature",
      "properties": {
        "norad_id": 35667,
        "name": "COSMOS 2251 DEB",
        "group": "cosmos-2251-debris",
        "lat": -46.60412538378567,
        "lon": -34.02625353748924,
        "alt_km": 688.7989602079442,
        "timestamp": "2025-12-18T21:31:51.401505+00:00",
        "meta_object_name": "COSMOS 2251 DEB",
        "meta_object_id": "1993-036APJ",
        "meta_epoch": "2025-12-14T16:10:30.846432",
        "meta_mean_motion": 14.60047432,
        "meta_eccentricity": 0.00195944,
        "meta_inclination": 74.0556,
        "meta_ra_of_asc_node": 136.4208,
        "meta_arg_of_pericenter": 197.4569,
        "meta_mean_anomaly": 162.5926,
        "meta_ephemeris_type": 0,
        "meta_classification_type": "U",
        "meta_norad_cat_id": 35667,
        "meta_element_set_no": 999,
        "meta_rev_at_epoch": 70831,
        "meta_bstar": 0.0010671241,
        "meta_mean_motion_dot": 5.114e-05,
        "meta_mean_motion_ddot": 0,
        "tle_line1": "1 35667U 93036APJ 25348.67396813  .00005114  00000+0  10671-2 0  9990",
        "tle_line2": "2 35667  74.0556 136.4208 0019594 197.4569 162.5926 14.60047432708310"
      },
      "geometry": {
        "type": "Point",
        "coordinates": [
          -34.02625353748924,
          -46.60412538378567
        ]
      }
    },
    {
      "type": "Feature",
      "properties": {
        "norad_id": 35668,
        "name": "COSMOS 2251 DEB",
        "group": "cosmos-2251-debris",
        "lat": 65.36867299190813,
        "lon": -112.68524290514033,
        "alt_km": 701.4570129574049,
        "timestamp": "2025-12-18T21:31:51.401516+00:00",
        "meta_object_name": "COSMOS 2251 DEB",
        "meta_object_id": "1993-036APK",
        "meta_epoch": "2025-12-10T09:50:46.743936",
        "meta_mean_motion": 14.63977041,
        "meta_eccentricity": 0.00831886,
        "meta_inclination": 74.0449,
        "meta_ra_of_asc_node": 224.9926,
        "meta_arg_of_pericenter": 330.6481,
        "meta_mean_anomaly": 29.0026,
        "meta_ephemeris_type": 0,
        "meta_classification_type": "U",
        "meta_norad_cat_id": 35668,
        "meta_element_set_no": 999,
        "meta_rev_at_epoch": 87613,
        "meta_bstar": 0.00039699898,
        "meta_mean_motion_dot": 2.154e-05,
        "meta_mean_motion_ddot": 0,
        "tle_line1": "1 35668U 93036APK 25344.41026324  .00002154  00000+0  39700-3 0  9992",
        "tle_line2": "2 35668  74.0449 224.9926 0083188 330.6481  29.0026 14.63977041876131"
      },
      "geometry": {
        "type": "Point",
        "coordinates": [
          -112.68524290514033,
          65.36867299190813
        ]
      }
    },
    {
      "type": "Feature",
      "properties": {
        "norad_id": 35669,
        "name": "COSMOS 2251 DEB",
        "group": "cosmos-2251-debris",
        "lat": -18.181182383675257,
        "lon": -25.19560314157631,
        "alt_km": 903.5974629603234,
        "timestamp": "2025-12-18T21:31:51.401527+00:00",
        "meta_object_name": "COSMOS 2251 DEB",
        "meta_object_id": "1993-036APL",
        "meta_epoch": "2025-12-18T02:49:24.146112",
        "meta_mean_motion": 13.57165784,
        "meta_eccentricity": 0.03877468,
        "meta_inclination": 73.86,
        "meta_ra_of_asc_node": 150.6186,
        "meta_arg_of_pericenter": 261.487,
        "meta_mean_anomaly": 94.2128,
        "meta_ephemeris_type": 0,
        "meta_classification_type": "U",
        "meta_norad_cat_id": 35669,
        "meta_element_set_no": 999,
        "meta_rev_at_epoch": 60862,
        "meta_bstar": 0.00072975902,
        "meta_mean_motion_dot": 8.23e-06,
        "meta_mean_motion_ddot": 0,
        "tle_line1": "1 35669U 93036APL 25352.11764058  .00000823  00000+0  72976-3 0  9995",
        "tle_line2": "2 35669  73.8600 150.6186 0387746 261.4870  94.2128 13.57165784608620"
      },
      "geometry": {
        "type": "Point",
        "coordinates": [
          -25.19560314157631,
          -18.181182383675257
        ]
      }
    }
  ]
}